{
  "type": "FeatureCollection",
  "features": [
    {
      "type": "Feature",
      "properties": {
        "norad_id": 66844,
        "name": "STARLINK-36073",
        "group": "last-30-days",
        "lat": 3.8908731100597764,
        "lon": 14.777912268419795,
        "alt_km": 341.8597123674017,
        "timestamp": "2025-12-13T15:35:10.878036+00:00",
        "meta_object_name": "STARLINK-36073",
        "meta_object_id": "2025-280Z",
        "meta_epoch": "2025-12-12T20:00:01.999872",
        "meta_mean_motion": 15.79929057,
        "meta_eccentricity": 0.00036338,
        "meta_inclination": 69.9919,
        "meta_ra_of_asc_node": 198.5205,
        "meta_arg_of_pericenter": 273.8169,
        "meta_mean_anomaly": 306.4728,
        "meta_ephemeris_type": 0,
        "meta_classification_type": "U",
        "meta_norad_cat_id": 66844,
        "meta_element_set_no": 999,
        "meta_rev_at_epoch": 291,
        "meta_bstar": -0.011141283,
        "meta_mean_motion_dot": -0.01817936,
        "meta_mean_motion_ddot": 0,
        "tle_line1": "1 66844U 25280Z   25346.83335648 -.01817936  00000+0 -11141-1 0  9990",
        "tle_line2": "2 66844  69.9919 198.5205 0003633 273.8169 306.4728 15.79929057  2910"
      },
      "geometry": {
        "type": "Point",
        "coordinates": [
          14.777912268419795,
          3.8908731100597764
        ]
      }
    },
    {
      "type": "Feature",
      "properties": {
        "norad_id": 66845,
        "name": "STARLINK-36068",
        "group": "last-30-days",
        "lat": -3.401703931329033,
        "lon": 17.430024962487785,
        "alt_km": 342.15546987316884,
        "timestamp": "2025-12-13T15:35:10.878048+00:00",
        "meta_object_name": "STARLINK-36068",
        "meta_object_id": "2025-280AA",
        "meta_epoch": "2025-12-12T20:00:01.999872",
        "meta_mean_motion": 15.79992683,
        "meta_eccentricity": 0.00036331,
        "meta_inclination": 69.9916,
        "meta_ra_of_asc_node": 198.5115,
        "meta_arg_of_pericenter": 267.4027,
        "meta_mean_anomaly": 320.512,
        "meta_ephemeris_type": 0,
        "meta_classification_type": "U",
        "meta_norad_cat_id": 66845,
        "meta_element_set_no": 999,
        "meta_rev_at_epoch": 291,
        "meta_bstar": -0.011236207,
        "meta_mean_motion_dot": -0.01836227,
        "meta_mean_motion_ddot": 0,
        "tle_line1": "1 66845U 25280AA  25346.83335648 -.01836227  00000+0 -11236-1 0  9990",
        "tle_line2": "2 66845  69.9916 198.5115 0003633 267.4027 320.5120 15.79992683  2918"
      },
      "geometry": {
        "type": "Point",
        "coordinates": [
          17.430024962487785,
          -3.401703931329033
        ]
      }
    },
    {
      "type": "Feature",
      "properties": {
        "norad_id": 66846,
        "name": "STARLINK-36055",
        "group": "last-30-days",
        "lat": 0.15148512329166736,
        "lon": 16.137922106533892,
        "alt_km": 341.99378032351433,
        "timestamp": "2025-12-13T15:35:10.878060+00:00",
        "meta_object_name": "STARLINK-36055",
        "meta_object_id": "2025-280AB",
        "meta_epoch": "2025-12-12T20:00:01.999872",
        "meta_mean_motion": 15.7993915,
        "meta_eccentricity": 0.00037072,
        "meta_inclination": 69.9917,
        "meta_ra_of_asc_node": 198.5156,
        "meta_arg_of_pericenter": 269.0176,
        "meta_mean_anomaly": 315.2358,
        "meta_ephemeris_type": 0,
        "meta_classification_type": "U",
        "meta_norad_cat_id": 66846,
        "meta_element_set_no": 999,
        "meta_rev_at_epoch": 291,
        "meta_bstar": -0.011167981,
        "meta_mean_motion_dot": -0.01822586,
        "meta_mean_motion_ddot": 0,
        "tle_line1": "1 66846U 25280AB  25346.83335648 -.01822586  00000+0 -11168-1 0  9998",
        "tle_line2": "2 66846  69.9917 198.5156 0003707 269.0176 315.2358 15.79939150  2914"
      },
      "geometry": {
        "type": "Point",
        "coordinates": [
          16.137922106533892,
          0.15148512329166736
        ]
      }
    },
    {
      "type": "Feature",
      "properties": {
        "norad_id": 66847,
        "name": "STARLINK-36061",
        "group": "last-30-days",
        "lat": -1.608080603815768,
        "lon": 16.777388879167408,
        "alt_km": 342.09020541044447,
        "timestamp": "2025-12-13T15:35:10.878070+00:00",
        "meta_object_name": "STARLINK-36061",
        "meta_object_id": "2025-280AC",
        "meta_epoch": "2025-12-12T20:00:01.999872",
        "meta_mean_motion": 15.79968293,
        "meta_eccentricity": 0.00037172,
        "meta_inclination": 69.9917,
        "meta_ra_of_asc_node": 198.5138,
        "meta_arg_of_pericenter": 269.0585,
        "meta_mean_anomaly": 316.9934,
        "meta_ephemeris_type": 0,
        "meta_classification_type": "U",
        "meta_norad_cat_id": 66847,
        "meta_element_set_no": 999,
        "meta_rev_at_epoch": 286,
        "meta_bstar": -0.011182118,
        "meta_mean_motion_dot": -0.01826771,
        "meta_mean_motion_ddot": 0,
        "tle_line1": "1 66847U 25280AC  25346.83335648 -.01826771  00000+0 -11182-1 0  9995",
        "tle_line2": "2 66847  69.9917 198.5138 0003717 269.0585 316.9934 15.79968293  2862"
      },
      "geometry": {
        "type": "Point",
        "coordinates": [
          16.777388879167408,
          -1.608080603815768
        ]
      }
    },
    {
      "type": "Feature",
      "properties": {
        "norad_id": 66848,
        "name": "STARLINK-36091",
        "group": "last-30-days",
        "lat": -25.008319377551462,
        "lon": 86.71860696321792,
        "alt_km": 306.62510231094166,
        "timestamp": "2025-12-13T15:35:10.878080+00:00",
        "meta_object_name": "STARLINK-36091",
        "meta_object_id": "2025-281A",
        "meta_epoch": "2025-12-12T20:00:01.999872",
        "meta_mean_motion": 15.90522465,
        "meta_eccentricity": 0.00018183,
        "meta_inclination": 43.001,
        "meta_ra_of_asc_node": 121.8181,
        "meta_arg_of_pericenter": 280.7024,
        "meta_mean_anomaly": 44.9948,
        "meta_ephemeris_type": 0,
        "meta_classification_type": "U",
        "meta_norad_cat_id": 66848,
        "meta_element_set_no": 999,
        "meta_rev_at_epoch": 141,
        "meta_bstar": -0.003358174,
        "meta_mean_motion_dot": -0.00964525,
        "meta_mean_motion_ddot": 0,
        "tle_line1": "1 66848U 25281A   25346.83335648 -.00964525  00000+0 -33582-2 0  9995",
        "tle_line2": "2 66848  43.0010 121.8181 0001818 280.7024  44.9948 15.90522465  1418"
      },
      "geometry": {
        "type": "Point",
        "coordinates": [
          86.71860696321792,
          -25.008319377551462
        ]
      }
    },
    {
      "type": "Feature",
      "properties": {
        "norad_id": 66849,
        "name": "STARLINK-36102",
        "group": "last-30-days",
        "lat": -23.625057095295393,
        "lon": 88.75675639383866,
        "alt_km": 306.5515719544601,
        "timestamp": "2025-12-13T15:35:10.878090+00:00",
        "meta_object_name": "STARLINK-36102",
        "meta_object_id": "2025-281B",
        "meta_epoch": "2025-12-12T20:00:01.999872",
        "meta_mean_motion": 15.90558114,
        "meta_eccentricity": 0.00016432,
        "meta_inclination": 43.0012,
        "meta_ra_of_asc_node": 121.8119,
        "meta_arg_of_pericenter": 281.6245,
        "meta_mean_anomaly": 46.2999,
        "meta_ephemeris_type": 0,
        "meta_classification_type": "U",
        "meta_norad_cat_id": 66849,
        "meta_element_set_no": 999,
        "meta_rev_at_epoch": 141,
        "meta_bstar": -0.0033644472,
        "meta_mean_motion_dot": -0.00967666,
        "meta_mean_motion_ddot": 0,
        "tle_line1": "1 66849U 25281B   25346.83335648 -.00967666  00000+0 -33644-2 0  9994",
        "tle_line2": "2 66849  43.0012 121.8119 0001643 281.6245  46.2999 15.90558114  1414"
      },
      "geometry": {
        "type": "Point",
        "coordinates": [
          88.75675639383866,
          -23.625057095295393
        ]
      }
    },
    {
      "type": "Feature",
      "properties": {
        "norad_id": 66850,
        "name": "STARLINK-36105",
        "group": "last-30-days",
        "lat": -21.747490745984695,
        "lon": 91.39821869600306,
        "alt_km": 306.335191032872,
        "timestamp": "2025-12-13T15:35:10.878100+00:00",
        "meta_object_name": "STARLINK-36105",
        "meta_object_id": "2025-281C",
        "meta_epoch": "2025-12-12T20:00:01.999872",
        "meta_mean_motion": 15.90617636,
        "meta_eccentricity": 0.00017272,
        "meta_inclination": 43.0009,
        "meta_ra_of_asc_node": 121.8046,
        "meta_arg_of_pericenter": 282.1385,
        "meta_mean_anomaly": 48.7563,
        "meta_ephemeris_type": 0,
        "meta_classification_type": "U",
        "meta_norad_cat_id": 66850,
        "meta_element_set_no": 999,
        "meta_rev_at_epoch": 141,
        "meta_bstar": -0.0034406996,
        "meta_mean_motion_dot": -0.00990132,
        "meta_mean_motion_ddot": 0,
        "tle_line1": "1 66850U 25281C   25346.83335648 -.00990132  00000+0 -34407-2 0  9998",
        "tle_line2": "2 66850  43.0009 121.8046 0001727 282.1385  48.7563 15.90617636  1414"
      },
      "geometry": {
        "type": "Point",
        "coordinates": [
          91.39821869600306,
          -21.747490745984695
        ]
      }
    }
  ]
}